ONEWEB-0228             
1 48780U 21045P   24197.60982659  .00000045  00000+0  85457-4 0  9998
2 48780  87.9014  38.7910 0001804  81.8884 278.2450 13.15070029152088
